{"type": "FeatureCollection", "features": [ {"type": "Feature", "properties": {"norad_id": 33153, "name": "INTELSAT 25 (IS-25)", "group": "intelsat", "lat": 0.6049820939990768, "lon": 98.43915782135772, "alt_km": 35806.229541416564, "timestamp": "2025-12-01T03:58:49.229443+00:00", "meta": {"OBJECT_NAME": "INTELSAT 25 (IS-25)", "OBJECT_ID": "2008-034A", "EPOCH": "2025-11-30T18:49:49.351008", "MEAN_MOTION": 1.00272248, "ECCENTRICITY": 0.0005164, "INCLINATION": 2.1941, "RA_OF_ASC_NODE": 82.7839, "ARG_OF_PERICENTER": 174.1389, "MEAN_ANOMALY": 63.9515, "EPHEMERIS_TYPE": 0, "CLASSIFICATION_TYPE": "U", "NORAD_CAT_ID": 33153, "ELEMENT_SET_NO": 999, "REV_AT_EPOCH": 6370, "BSTAR": 0, "MEAN_MOTION_DOT": -2.02e-06, "MEAN_MOTION_DDOT": 0, "GROUP": "intelsat"}, "tle": {"line1": "1 33153U 08034A   25334.78459897 -.00000202  00000+0  00000+0 0  9997", "line2": "2 33153   2.1941  82.7839 0005164 174.1389  63.9515  1.00272248 63701"}}, "geometry": {"type": "Point", "coordinates": [98.43915782135772, 0.6049820939990768]}}, {"type": "Feature", "properties": {"norad_id": 33376, "name": "GALAXY 19 (G-19)", "group": "intelsat", "lat": 0.035665001898009516, "lon": 32.97176688236224, "alt_km": 35795.9839861119, "timestamp": "2025-12-01T03:58:49.229455+00:00", "meta": {"OBJECT_NAME": "GALAXY 19 (G-19)", "OBJECT_ID": "2008-045A", "EPOCH": "2025-11-30T15:05:37.345344", "MEAN_MOTION": 1.00270338, "ECCENTRICITY": 0.0003316, "INCLINATION": 0.0179, "RA_OF_ASC_NODE": 328.7547, "ARG_OF_PERICENTER": 291.8228, "MEAN_ANOMALY": 298.5704, "EPHEMERIS_TYPE": 0, "CLASSIFICATION_TYPE": "U", "NORAD_CAT_ID": 33376, "ELEMENT_SET_NO": 999, "REV_AT_EPOCH": 6291, "BSTAR": 0, "MEAN_MOTION_DOT": 0, "MEAN_MOTION_DDOT": 0, "GROUP": "intelsat"}, "tle": {"line1": "1 33376U 08045A   25334.62890446  .00000000  00000+0  00000+0 0  9993", "line2": "2 33376   0.0179 328.7547 0003316 291.8228 298.5704  1.00270338 62919"}}, "geometry": {"type": "Point", "coordinates": [32.97176688236224, 0.035665001898009516]}}, {"type": "Feature", "properties": {"norad_id": 35493, "name": "FM-5", "group": "intelsat", "lat": 0.039570838850038974, "lon": 43.8141599360273, "alt_km": 35789.63086858171, "timestamp": "2025-12-01T03:58:49.229470+00:00", "meta": {"OBJECT_NAME": "FM-5", "OBJECT_ID": "2009-034A", "EPOCH": "2025-11-30T18:34:01.911936", "MEAN_MOTION": 1.00269229, "ECCENTRICITY": 0.000146, "INCLINATION": 0.025, "RA_OF_ASC_NODE": 280.0693, "ARG_OF_PERICENTER": 240.9326, "MEAN_ANOMALY": 101.2772, "EPHEMERIS_TYPE": 0, "CLASSIFICATION_TYPE": "U", "NORAD_CAT_ID": 35493, "ELEMENT_SET_NO": 999, "REV_AT_EPOCH": 4465, "BSTAR": 0, "MEAN_MOTION_DOT": -1.78e-06, "MEAN_MOTION_DDOT": 0, "GROUP": "intelsat"}, "tle": {"line1": "1 35493U 09034A   25334.77363324 -.00000178  00000+0  00000+0 0  9997", "line2": "2 35493   0.0250 280.0693 0001460 240.9326 101.2772  1.00269229 44658"}}, "geometry": {"type": "Point", "coordinates": [43.8141599360273, 0.039570838850038974]}}, {"type": "Feature", "properties": {"norad_id": 36097, "name": "INTELSAT 14 (IS-14)", "group": "intelsat", "lat": 0.0209286637803842, "lon": 84.96078866668358, "alt_km": 35796.95420072754, "timestamp": "2025-12-01T03:58:49.229486+00:00", "meta": {"OBJECT_NAME": "INTELSAT 14 (IS-14)", "OBJECT_ID": "2009-064A", "EPOCH": "2025-11-30T18:45:57.220992", "MEAN_MOTION": 1.00270965, "ECCENTRICITY": 0.00026, "INCLINATION": 0.0166, "RA_OF_ASC_NODE": 24.4625, "ARG_OF_PERICENTER": 224.8456, "MEAN_ANOMALY": 57.097, "EPHEMERIS_TYPE": 0, "CLASSIFICATION_TYPE": "U", "NORAD_CAT_ID": 36097, "ELEMENT_SET_NO": 999, "REV_AT_EPOCH": 5861, "BSTAR": 0, "MEAN_MOTION_DOT": -2.52e-06, "MEAN_MOTION_DDOT": 0, "GROUP": "intelsat"}, "tle": {"line1": "1 36097U 09064A   25334.78191228 -.00000252  00000+0  00000+0 0  9997", "line2": "2 36097   0.0166  24.4625 0002600 224.8456  57.0970  1.00270965 58610"}}, "geometry": {"type": "Point", "coordinates": [84.96078866668358, 0.0209286637803842]}}, {"type": "Feature", "properties": {"norad_id": 36106, "name": "INTELSAT 15 (IS-15)", "group": "intelsat", "lat": -0.0016550048248123303, "lon": -144.87915104772847, "alt_km": 35777.72659760186, "timestamp": "2025-12-01T03:58:49.229498+00:00", "meta": {"OBJECT_NAME": "INTELSAT 15 (IS-15)", "OBJECT_ID": "2009-067A", "EPOCH": "2025-11-30T19:23:08.659104", "MEAN_MOTION": 1.00271167, "ECCENTRICITY": 0.0002349, "INCLINATION": 0.0423, "RA_OF_ASC_NODE": 92.7537, "ARG_OF_PERICENTER": 153.1252, "MEAN_ANOMALY": 200.0147, "EPHEMERIS_TYPE": 0, "CLASSIFICATION_TYPE": "U", "NORAD_CAT_ID": 36106, "ELEMENT_SET_NO": 999, "REV_AT_EPOCH": 3924, "BSTAR": 0, "MEAN_MOTION_DOT": -1.64e-06, "MEAN_MOTION_DDOT": 0, "GROUP": "intelsat"}, "tle": {"line1": "1 36106U 09067A   25334.80773911 -.00000164  00000+0  00000+0 0  9991", "line2": "2 36106   0.0423  92.7537 0002349 153.1252 200.0147  1.00271167 39244"}}, "geometry": {"type": "Point", "coordinates": [-144.87915104772847, -0.0016550048248123303]}}, {"type": "Feature", "properties": {"norad_id": 36131, "name": "DIRECTV 12", "group": "intelsat", "lat": 0.005970428503818984, "lon": 27.260707579803636, "alt_km": 35786.35992724041, "timestamp": "2025-12-01T03:58:49.229511+00:00", "meta": {"OBJECT_NAME": "DIRECTV 12", "OBJECT_ID": "2009-075A", "EPOCH": "2025-11-30T15:03:37.536192", "MEAN_MOTION": 1.00272179, "ECCENTRICITY": 9.2e-06, "INCLINATION": 0.0266, "RA_OF_ASC_NODE": 136.497, "ARG_OF_PERICENTER": 60.1546, "MEAN_ANOMALY": 356.3093, "EPHEMERIS_TYPE": 0, "CLASSIFICATION_TYPE": "U", "NORAD_CAT_ID": 36131, "ELEMENT_SET_NO": 999, "REV_AT_EPOCH": 4456, "BSTAR": 0, "MEAN_MOTION_DOT": -8.2e-07, "MEAN_MOTION_DDOT": 0, "GROUP": "intelsat"}, "tle": {"line1": "1 36131U 09075A   25334.62751778 -.00000082  00000+0  00000+0 0  9994", "line2": "2 36131   0.0266 136.4970 0000092  60.1546 356.3093  1.00272179 44560"}}, "geometry": {"type": "Point", "coordinates": [27.260707579803636, 0.005970428503818984]}}, {"type": "Feature", "properties": {"norad_id": 36397, "name": "INTELSAT 16 (IS-16)", "group": "intelsat", "lat": 0.02980917222697634, "lon": 53.77240763433261, "alt_km": 35796.666702709044, "timestamp": "2025-12-01T03:58:49.229523+00:00", "meta": {"OBJECT_NAME": "INTELSAT 16 (IS-16)", "OBJECT_ID": "2010-006A", "EPOCH": "2025-11-30T18:36:54.138240", "MEAN_MOTION": 1.00268135, "ECCENTRICITY": 0.0002304, "INCLINATION": 0.0097, "RA_OF_ASC_NODE": 312.9889, "ARG_OF_PERICENTER": 293.2993, "MEAN_ANOMALY": 26.6497, "EPHEMERIS_TYPE": 0, "CLASSIFICATION_TYPE": "U", "NORAD_CAT_ID": 36397, "ELEMENT_SET_NO": 999, "REV_AT_EPOCH": 5766, "BSTAR": 0, "MEAN_MOTION_DOT": -2.23e-06, "MEAN_MOTION_DDOT": 0, "GROUP": "intelsat"}, "tle": {"line1": "1 36397U 10006A   25334.77562660 -.00000223  00000+0  00000+0 0  9997", "line2": "2 36397   0.0097 312.9889 0002304 293.2993  26.6497  1.00268135 57666"}}, "geometry": {"type": "Point", "coordinates": [53.77240763433261, 0.02980917222697634]}}, {"type": "Feature", "properties": {"norad_id": 37185, "name": "XM-5", "group": "intelsat", "lat": 0.08089325534546735, "lon": 14.773977041448143, "alt_km": 35791.39840398026, "timestamp": "2025-12-01T03:58:49.229540+00:00", "meta": {"OBJECT_NAME": "XM-5", "OBJECT_ID": "2010-053A", "EPOCH": "2025-11-30T16:43:12.524736", "MEAN_MOTION": 1.00270804, "ECCENTRICITY": 0.0001603, "INCLINATION": 0.0642, "RA_OF_ASC_NODE": 272.1854, "ARG_OF_PERICENTER": 241.4088, "MEAN_ANOMALY": 51.8583, "EPHEMERIS_TYPE": 0, "CLASSIFICATION_TYPE": "U", "NORAD_CAT_ID": 37185, "ELEMENT_SET_NO": 999, "REV_AT_EPOCH": 5549, "BSTAR": 0, "MEAN_MOTION_DOT": -1e-08, "MEAN_MOTION_DDOT": 0, "GROUP": "intelsat"}, "tle": {"line1": "1 37185U 10053A   25334.69667274 -.00000001  00000+0  00000+0 0  9997", "line2": "2 37185   0.0642 272.1854 0001603 241.4088  51.8583  1.00270804 55499"}}, "geometry": {"type": "Point", "coordinates": [14.773977041448143, 0.08089325534546735]}}, {"type": "Feature", "properties": {"norad_id": 37238, "name": "INTELSAT 17 (IS-17)", "group": "intelsat", "lat": -0.029111900444692564, "lon": -164.06367935242042, "alt_km": 35781.83189258618, "timestamp": "2025-12-01T03:58:49.229553+00:00", "meta": {"OBJECT_NAME": "INTELSAT 17 (IS-17)", "OBJECT_ID": "2010-065B", "EPOCH": "2025-11-30T19:17:39.184800", "MEAN_MOTION": 1.00271522, "ECCENTRICITY": 0.0002644, "INCLINATION": 0.0093, "RA_OF_ASC_NODE": 298.6252, "ARG_OF_PERICENTER": 324.7969, "MEAN_ANOMALY": 161.9242, "EPHEMERIS_TYPE": 0, "CLASSIFICATION_TYPE": "U", "NORAD_CAT_ID": 37238, "ELEMENT_SET_NO": 999, "REV_AT_EPOCH": 5125, "BSTAR": 0, "MEAN_MOTION_DOT": 2e-07, "MEAN_MOTION_DDOT": 0, "GROUP": "intelsat"}, "tle": {"line1": "1 37238U 10065B   25334.80392575  .00000020  00000+0  00000+0 0  9991", "line2": "2 37238   0.0093 298.6252 0002644 324.7969 161.9242  1.00271522 51255"}}, "geometry": {"type": "Point", "coordinates": [-164.06367935242042, -0.029111900444692564]}}, {"type": "Feature", "properties": {"norad_id": 37392, "name": "INTELSAT 28 (IS-28)", "group": "intelsat", "lat": 0.30314714055090747, "lon": 98.24130177520541, "alt_km": 35802.291372428954, "timestamp": "2025-12-01T03:58:49.229566+00:00", "meta": {"OBJECT_NAME": "INTELSAT 28 (IS-28)", "OBJECT_ID": "2011-016A", "EPOCH": "2025-11-30T18:49:41.862720", "MEAN_MOTION": 1.00270297, "ECCENTRICITY": 0.0004038, "INCLINATION": 1.2908, "RA_OF_ASC_NODE": 85.2006, "ARG_OF_PERICENTER": 170.6705, "MEAN_ANOMALY": 64.7657, "EPHEMERIS_TYPE": 0, "CLASSIFICATION_TYPE": "U", "NORAD_CAT_ID": 37392, "ELEMENT_SET_NO": 999, "REV_AT_EPOCH": 5129, "BSTAR": 0, "MEAN_MOTION_DOT": -2.03e-06, "MEAN_MOTION_DDOT": 0, "GROUP": "intelsat"}, "tle": {"line1": "1 37392U 11016A   25334.78451230 -.00000203  00000+0  00000+0 0  9994", "line2": "2 37392   1.2908  85.2006 0004038 170.6705  64.7657  1.00270297 51298"}}, "geometry": {"type": "Point", "coordinates": [98.24130177520541, 0.30314714055090747]}}]}